{
  "links" : {
    "next" : "https://api.nasa.gov/neo/rest/v1/feed?start_date=2011-08-09&end_date=2011-08-09&detailed=true&api_key=t0TVs3DtDT2H8Oy2Zy8m2eVrNsAVKAexjcZXUckd",
    "prev" : "https://api.nasa.gov/neo/rest/v1/feed?start_date=2011-08-07&end_date=2011-08-07&detailed=true&api_key=t0TVs3DtDT2H8Oy2Zy8m2eVrNsAVKAexjcZXUckd",
    "self" : "https://api.nasa.gov/neo/rest/v1/feed?start_date=2011-08-08&end_date=2011-08-08&detailed=true&api_key=t0TVs3DtDT2H8Oy2Zy8m2eVrNsAVKAexjcZXUckd"
  },
  "element_count" : 7,
  "near_earth_objects" : {
    "2011-08-08" : [ {
      "links" : {
        "self" : "https://api.nasa.gov/neo/rest/v1/neo/3765641?api_key=t0TVs3DtDT2H8Oy2Zy8m2eVrNsAVKAexjcZXUckd"
      },
      "neo_reference_id" : "3765641",
      "name" : "(2016 XB2)",
      "nasa_jpl_url" : "http://ssd.jpl.nasa.gov/sbdb.cgi?sstr=3765641",
      "absolute_magnitude_h" : 21.5,
      "estimated_diameter" : {
        "kilometers" : {
          "estimated_diameter_min" : 0.1332155667,
          "estimated_diameter_max" : 0.2978790628
        },
        "meters" : {
          "estimated_diameter_min" : 133.2155666981,
          "estimated_diameter_max" : 297.8790627982
        },
        "miles" : {
          "estimated_diameter_min" : 0.0827762899,
          "estimated_diameter_max" : 0.1850934111
        },
        "feet" : {
          "estimated_diameter_min" : 437.0589598459,
          "estimated_diameter_max" : 977.2935443908
        }
      },
      "is_potentially_hazardous_asteroid" : false,
      "close_approach_data" : [ {
        "close_approach_date" : "2011-08-08",
        "epoch_date_close_approach" : 1312786800000,
        "relative_velocity" : {
          "kilometers_per_second" : "17.7186061862",
          "kilometers_per_hour" : "63786.9822703045",
          "miles_per_hour" : "39634.7501779012"
        },
        "miss_distance" : {
          "astronomical" : "0.4365814216",
          "lunar" : "169.8301849365",
          "kilometers" : "65311652",
          "miles" : "40582780"
        },
        "orbiting_body" : "Earth"
      } ],
      "orbital_data" : {
        "orbit_id" : "7",
        "orbit_determination_date" : "2017-04-06 08:21:38",
        "orbit_uncertainty" : "7",
        "minimum_orbit_intersection" : ".120888",
        "jupiter_tisserand_invariant" : "5.271",
        "epoch_osculation" : "2458000.5",
        "eccentricity" : ".4988982436283761",
        "semi_major_axis" : "1.164557282131276",
        "inclination" : "11.83449066586588",
        "ascending_node_longitude" : "253.2788787460461",
        "orbital_period" : "459.0285626976867",
        "perihelion_distance" : ".5835616994713472",
        "perihelion_argument" : "38.73026297656523",
        "aphelion_distance" : "1.745552864791206",
        "perihelion_time" : "2458066.481299940825",
        "mean_anomaly" : "308.2531809369331",
        "mean_motion" : ".784264922174557",
        "equinox" : "J2000"
      }
    } ]
  }
}